[{"OBJECT_NAME":"COSMO-SKYMED 1","OBJECT_ID":"2007-023A","EPOCH":"2026-03-09T23:58:15.190752","MEAN_MOTION":14.96537365,"ECCENTRICITY":0.0001274,"INCLINATION":97.8873,"RA_OF_ASC_NODE":260.0329,"ARG_OF_PERICENTER":100.0972,"MEAN_ANOMALY":260.0392,"EPHEMERIS_TYPE":0,"CLASSIFICATION_TYPE":"U","NORAD_CAT_ID":31598,"ELEMENT_SET_NO":999,"REV_AT_EPOCH":1495,"BSTAR":0.00038631176,"MEAN_MOTION_DOT":4.334e-5,"MEAN_MOTION_DDOT":0},{"OBJECT_NAME":"STARLINK-5260","OBJECT_ID":"2023-010G","EPOCH":"2026-03-09T22:31:18.295680","MEAN_MOTION":14.98326116,"ECCENTRICITY":0.00029342,"INCLINATION":70.0038,"RA_OF_ASC_NODE":23.9446,"ARG_OF_PERICENTER":266.5327,"MEAN_ANOMALY":93.5496,"EPHEMERIS_TYPE":0,"CLASSIFICATION_TYPE":"U","NORAD_CAT_ID":55275,"ELEMENT_SET_NO":999,"REV_AT_EPOCH":17331,"BSTAR":0.00092187671,"MEAN_MOTION_DOT":0.00010923,"MEAN_MOTION_DDOT":0}]
